{
    "links": {
        "self": "http://www.neowsapp.com/rest/v1/neo/3836099?api_key=iIulBulltgU6a56xZRHN4H3l9WmuAYTsLGpBGhQ2"
    },
    "id": "3836099",
    "neo_reference_id": "3836099",
    "name": "(2018 VD4)",
    "designation": "2018 VD4",
    "nasa_jpl_url": "http://ssd.jpl.nasa.gov/sbdb.cgi?sstr=3836099",
    "absolute_magnitude_h": 24.7,
    "estimated_diameter": {
        "kilometers": {
            "estimated_diameter_min": 0.0305179233,
            "estimated_diameter_max": 0.0682401509
        },
        "meters": {
            "estimated_diameter_min": 30.5179232594,
            "estimated_diameter_max": 68.2401509401
        },
        "miles": {
            "estimated_diameter_min": 0.0189629525,
            "estimated_diameter_max": 0.0424024508
        },
        "feet": {
            "estimated_diameter_min": 100.1244233463,
            "estimated_diameter_max": 223.8850168104
        }
    },
    "is_potentially_hazardous_asteroid": false,
    "close_approach_data": [
        {
            "close_approach_date": "2018-10-26",
            "close_approach_date_full": "2018-Oct-26 12:30",
            "epoch_date_close_approach": 1540557000000,
            "relative_velocity": {
                "kilometers_per_second": "9.5458385103",
                "kilometers_per_hour": "34365.0186371698",
                "miles_per_hour": "21353.0861637459"
            },
            "miss_distance": {
                "astronomical": "0.0579981078",
                "lunar": "22.5612639342",
                "kilometers": "8676393.390910386",
                "miles": "5391260.8570238868"
            },
            "orbiting_body": "Earth"
        }
    ],
    "orbital_data": {
        "orbit_id": "3",
        "orbit_determination_date": "2018-11-16 06:25:00",
        "first_observation_date": "2018-11-07",
        "last_observation_date": "2018-11-16",
        "data_arc_in_days": 9,
        "observations_used": 21,
        "orbit_uncertainty": "8",
        "minimum_orbit_intersection": ".0318956",
        "jupiter_tisserand_invariant": "3.972",
        "epoch_osculation": "2458430.5",
        "eccentricity": ".4563426183583417",
        "semi_major_axis": "1.773371862563565",
        "inclination": "2.405970810206387",
        "ascending_node_longitude": "72.77222889392989",
        "orbital_period": "862.5775425145396",
        "perihelion_distance": ".9641067034782983",
        "perihelion_argument": "282.9680410611268",
        "aphelion_distance": "2.582637021648831",
        "perihelion_time": "2458389.425931878815",
        "mean_anomaly": "17.14241768980133",
        "mean_motion": ".4173537824211692",
        "equinox": "J2000",
        "orbit_class": {
            "orbit_class_type": "APO",
            "orbit_class_description": "Near-Earth asteroid orbits which cross the Earth’s orbit similar to that of 1862 Apollo",
            "orbit_class_range": "a (semi-major axis) > 1.0 AU; q (perihelion) < 1.017 AU"
        }
    },
    "is_sentry_object": false
}